{"type": "FeatureCollection", "features": [ {"type": "Feature", "properties": {"norad_id": 29940, "name": "FENGYUN 1C DEB", "group": "fengyun-1c-debris", "lat": 65.81125686614928, "lon": -162.30789801485747, "alt_km": 771.4179583536734, "timestamp": "2025-12-14T07:33:19.749955+00:00", "meta": {"OBJECT_NAME": "FENGYUN 1C DEB", "OBJECT_ID": "1999-025JN", "EPOCH": "2025-12-13T13:00:23.433696", "MEAN_MOTION": 14.18823991, "ECCENTRICITY": 0.00747219, "INCLINATION": 98.6216, "RA_OF_ASC_NODE": 357.1998, "ARG_OF_PERICENTER": 97.5533, "MEAN_ANOMALY": 29.401, "EPHEMERIS_TYPE": 0, "CLASSIFICATION_TYPE": "U", "NORAD_CAT_ID": 29940, "ELEMENT_SET_NO": 999, "REV_AT_EPOCH": 97499, "BSTAR": 0.0008198689, "MEAN_MOTION_DOT": 1.711e-05, "MEAN_MOTION_DDOT": 0}, "tle": {"line1": "1 29940U 99025JN  25347.54193789  .00001711  00000+0  81987-3 0  9991", "line2": "2 29940  98.6216 357.1998 0074721  97.5533  29.4010 14.18823991974993"}}, "geometry": {"type": "Point", "coordinates": [-162.30789801485747, 65.81125686614928]}}, {"type": "Feature", "properties": {"norad_id": 29942, "name": "FENGYUN 1C DEB", "group": "fengyun-1c-debris", "lat": 38.97691636168307, "lon": 47.077710772815294, "alt_km": 808.8976697881308, "timestamp": "2025-12-14T07:33:19.749966+00:00", "meta": {"OBJECT_NAME": "FENGYUN 1C DEB", "OBJECT_ID": "1999-025JQ", "EPOCH": "2025-12-13T16:15:42.295968", "MEAN_MOTION": 14.30417308, "ECCENTRICITY": 0.00488181, "INCLINATION": 98.637, "RA_OF_ASC_NODE": 53.5093, "ARG_OF_PERICENTER": 273.2241, "MEAN_ANOMALY": 86.3357, "EPHEMERIS_TYPE": 0, "CLASSIFICATION_TYPE": "U", "NORAD_CAT_ID": 29942, "ELEMENT_SET_NO": 999, "REV_AT_EPOCH": 97882, "BSTAR": 0.0009339378, "MEAN_MOTION_DOT": 2.417e-05, "MEAN_MOTION_DDOT": 0}, "tle": {"line1": "1 29942U 99025JQ  25347.67757287  .00002417  00000+0  93394-3 0  9995", "line2": "2 29942  98.6370  53.5093 0048818 273.2241  86.3357 14.30417308978823"}}, "geometry": {"type": "Point", "coordinates": [47.077710772815294, 38.97691636168307]}}, {"type": "Feature", "properties": {"norad_id": 29943, "name": "FENGYUN 1C DEB", "group": "fengyun-1c-debris", "lat": -50.31093747230644, "lon": 165.35780968022394, "alt_km": 842.34847331317, "timestamp": "2025-12-14T07:33:19.749976+00:00", "meta": {"OBJECT_NAME": "FENGYUN 1C DEB", "OBJECT_ID": "1999-025JR", "EPOCH": "2025-12-13T15:42:03.287808", "MEAN_MOTION": 14.0967131, "ECCENTRICITY": 0.00349257, "INCLINATION": 98.7269, "RA_OF_ASC_NODE": 355.3834, "ARG_OF_PERICENTER": 224.3915, "MEAN_ANOMALY": 256.0068, "EPHEMERIS_TYPE": 0, "CLASSIFICATION_TYPE": "U", "NORAD_CAT_ID": 29943, "ELEMENT_SET_NO": 999, "REV_AT_EPOCH": 97319, "BSTAR": 2.8766341e-05, "MEAN_MOTION_DOT": 8e-08, "MEAN_MOTION_DDOT": 0}, "tle": {"line1": "1 29943U 99025JR  25347.65420472  .00000008  00000+0  28766-4 0  9993", "line2": "2 29943  98.7269 355.3834 0034925 224.3915 256.0068 14.09671310973198"}}, "geometry": {"type": "Point", "coordinates": [165.35780968022394, -50.31093747230644]}}, {"type": "Feature", "properties": {"norad_id": 29944, "name": "FENGYUN 1C DEB", "group": "fengyun-1c-debris", "lat": 59.4161779116378, "lon": 118.16684798776157, "alt_km": 633.4809182349827, "timestamp": "2025-12-14T07:33:19.749986+00:00", "meta": {"OBJECT_NAME": "FENGYUN 1C DEB", "OBJECT_ID": "1999-025JS", "EPOCH": "2025-12-12T17:52:32.023776", "MEAN_MOTION": 14.87513177, "ECCENTRICITY": 0.01665524, "INCLINATION": 99.0026, "RA_OF_ASC_NODE": 280.8268, "ARG_OF_PERICENTER": 232.0294, "MEAN_ANOMALY": 126.5775, "EPHEMERIS_TYPE": 0, "CLASSIFICATION_TYPE": "U", "NORAD_CAT_ID": 29944, "ELEMENT_SET_NO": 999, "REV_AT_EPOCH": 454, "BSTAR": 0.0010054107, "MEAN_MOTION_DOT": 0.00011715, "MEAN_MOTION_DDOT": 0}, "tle": {"line1": "1 29944U 99025JS  25346.74481509  .00011715  00000+0  10054-2 0  9997", "line2": "2 29944  99.0026 280.8268 0166552 232.0294 126.5775 14.87513177  4547"}}, "geometry": {"type": "Point", "coordinates": [118.16684798776157, 59.4161779116378]}}, {"type": "Feature", "properties": {"norad_id": 29945, "name": "FENGYUN 1C DEB", "group": "fengyun-1c-debris", "lat": 54.12517049601475, "lon": -0.4468616058741819, "alt_km": 857.1981263431944, "timestamp": "2025-12-14T07:33:19.749996+00:00", "meta": {"OBJECT_NAME": "FENGYUN 1C DEB", "OBJECT_ID": "1999-025JT", "EPOCH": "2025-12-13T16:26:32.987328", "MEAN_MOTION": 14.05572045, "ECCENTRICITY": 0.00308675, "INCLINATION": 98.7918, "RA_OF_ASC_NODE": 11.2986, "ARG_OF_PERICENTER": 359.7878, "MEAN_ANOMALY": 110.4635, "EPHEMERIS_TYPE": 0, "CLASSIFICATION_TYPE": "U", "NORAD_CAT_ID": 29945, "ELEMENT_SET_NO": 999, "REV_AT_EPOCH": 96991, "BSTAR": 0.00011551859, "MEAN_MOTION_DOT": 1.46e-06, "MEAN_MOTION_DDOT": 0}, "tle": {"line1": "1 29945U 99025JT  25347.68510402  .00000146  00000+0  11552-3 0  9998", "line2": "2 29945  98.7918  11.2986 0030867 359.7878 110.4635 14.05572045969918"}}, "geometry": {"type": "Point", "coordinates": [-0.4468616058741819, 54.12517049601475]}}, {"type": "Feature", "properties": {"norad_id": 29946, "name": "FENGYUN 1C DEB", "group": "fengyun-1c-debris", "lat": 80.88220136763307, "lon": -125.12832442214848, "alt_km": 880.7170889406334, "timestamp": "2025-12-14T07:33:19.750006+00:00", "meta": {"OBJECT_NAME": "FENGYUN 1C DEB", "OBJECT_ID": "1999-025JU", "EPOCH": "2025-12-12T22:58:37.204320", "MEAN_MOTION": 14.08254841, "ECCENTRICITY": 0.00806624, "INCLINATION": 98.7801, "RA_OF_ASC_NODE": 339.1915, "ARG_OF_PERICENTER": 342.8561, "MEAN_ANOMALY": 70.7399, "EPHEMERIS_TYPE": 0, "CLASSIFICATION_TYPE": "U", "NORAD_CAT_ID": 29946, "ELEMENT_SET_NO": 999, "REV_AT_EPOCH": 97050, "BSTAR": 0.00034926895, "MEAN_MOTION_DOT": 5.71e-06, "MEAN_MOTION_DDOT": 0}, "tle": {"line1": "1 29946U 99025JU  25346.95737505  .00000571  00000+0  34927-3 0  9996", "line2": "2 29946  98.7801 339.1915 0080662 342.8561  70.7399 14.08254841970500"}}, "geometry": {"type": "Point", "coordinates": [-125.12832442214848, 80.88220136763307]}}, {"type": "Feature", "properties": {"norad_id": 29947, "name": "FENGYUN 1C DEB", "group": "fengyun-1c-debris", "lat": 41.00171161849391, "lon": 11.049595214141481, "alt_km": 871.9750369254507, "timestamp": "2025-12-14T07:33:19.750016+00:00", "meta": {"OBJECT_NAME": "FENGYUN 1C DEB", "OBJECT_ID": "1999-025JV", "EPOCH": "2025-12-13T16:29:43.406880", "MEAN_MOTION": 14.0306962, "ECCENTRICITY": 0.00408957, "INCLINATION": 98.8366, "RA_OF_ASC_NODE": 18.2126, "ARG_OF_PERICENTER": 118.2706, "MEAN_ANOMALY": 356.0619, "EPHEMERIS_TYPE": 0, "CLASSIFICATION_TYPE": "U", "NORAD_CAT_ID": 29947, "ELEMENT_SET_NO": 999, "REV_AT_EPOCH": 96763, "BSTAR": 0.00050844525, "MEAN_MOTION_DOT": 7.54e-06, "MEAN_MOTION_DDOT": 0}, "tle": {"line1": "1 29947U 99025JV  25347.68730795  .00000754  00000+0  50845-3 0  9992", "line2": "2 29947  98.8366  18.2126 0040895 118.2706 356.0619 14.03069620967636"}}, "geometry": {"type": "Point", "coordinates": [11.049595214141481, 41.00171161849391]}}, {"type": "Feature", "properties": {"norad_id": 29948, "name": "FENGYUN 1C DEB", "group": "fengyun-1c-debris", "lat": -70.92751475845061, "lon": 1.149735655195572, "alt_km": 846.9969275801741, "timestamp": "2025-12-14T07:33:19.750086+00:00", "meta": {"OBJECT_NAME": "FENGYUN 1C DEB", "OBJECT_ID": "1999-025JW", "EPOCH": "2025-12-13T12:00:18.999360", "MEAN_MOTION": 14.0619236, "ECCENTRICITY": 0.00837675, "INCLINATION": 98.8241, "RA_OF_ASC_NODE": 333.6582, "ARG_OF_PERICENTER": 231.4448, "MEAN_ANOMALY": 253.3378, "EPHEMERIS_TYPE": 0, "CLASSIFICATION_TYPE": "U", "NORAD_CAT_ID": 29948, "ELEMENT_SET_NO": 999, "REV_AT_EPOCH": 96987, "BSTAR": 0.00030034665, "MEAN_MOTION_DOT": 4.66e-06, "MEAN_MOTION_DDOT": 0}, "tle": {"line1": "1 29948U 99025JW  25347.50021990  .00000466  00000+0  30035-3 0  9993", "line2": "2 29948  98.8241 333.6582 0083767 231.4448 253.3378 14.06192360969875"}}, "geometry": {"type": "Point", "coordinates": [1.149735655195572, -70.92751475845061]}}, {"type": "Feature", "properties": {"norad_id": 29949, "name": "FENGYUN 1C DEB", "group": "fengyun-1c-debris", "lat": -61.47198783603996, "lon": 167.4672746433475, "alt_km": 868.5080099631869, "timestamp": "2025-12-14T07:33:19.750099+00:00", "meta": {"OBJECT_NAME": "FENGYUN 1C DEB", "OBJECT_ID": "1999-025JX", "EPOCH": "2025-12-13T15:35:39.162048", "MEAN_MOTION": 14.06826371, "ECCENTRICITY": 0.00232124, "INCLINATION": 98.7623, "RA_OF_ASC_NODE": 3.3059, "ARG_OF_PERICENTER": 302.8522, "MEAN_ANOMALY": 173.7197, "EPHEMERIS_TYPE": 0, "CLASSIFICATION_TYPE": "U", "NORAD_CAT_ID": 29949, "ELEMENT_SET_NO": 999, "REV_AT_EPOCH": 97120, "BSTAR": 0.00016134935, "MEAN_MOTION_DOT": 2.26e-06, "MEAN_MOTION_DDOT": 0}, "tle": {"line1": "1 29949U 99025JX  25347.64975882  .00000226  00000+0  16135-3 0  9996", "line2": "2 29949  98.7623   3.3059 0023212 302.8522 173.7197 14.06826371971204"}}, "geometry": {"type": "Point", "coordinates": [167.4672746433475, -61.47198783603996]}}, {"type": "Feature", "properties": {"norad_id": 29950, "name": "FENGYUN 1C DEB", "group": "fengyun-1c-debris", "lat": 78.07684428952162, "lon": -113.88051107976985, "alt_km": 868.6391969877495, "timestamp": "2025-12-14T07:33:19.750110+00:00", "meta": {"OBJECT_NAME": "FENGYUN 1C DEB", "OBJECT_ID": "1999-025JY", "EPOCH": "2025-12-13T16:19:48.654336", "MEAN_MOTION": 14.10334649, "ECCENTRICITY": 0.00323279, "INCLINATION": 98.7411, "RA_OF_ASC_NODE": 18.7317, "ARG_OF_PERICENTER": 239.3512, "MEAN_ANOMALY": 239.8902, "EPHEMERIS_TYPE": 0, "CLASSIFICATION_TYPE": "U", "NORAD_CAT_ID": 29950, "ELEMENT_SET_NO": 999, "REV_AT_EPOCH": 97304, "BSTAR": 0.00019927489, "MEAN_MOTION_DOT": 3.12e-06, "MEAN_MOTION_DDOT": 0}, "tle": {"line1": "1 29950U 99025JY  25347.68042424  .00000312  00000+0  19927-3 0  9997", "line2": "2 29950  98.7411  18.7317 0032327 239.3512 239.8902 14.10334649973047"}}, "geometry": {"type": "Point", "coordinates": [-113.88051107976985, 78.07684428952162]}}]}